[{"OBJECT_NAME":"TIANQI-20","OBJECT_ID":"2025-105D","EPOCH":"2026-03-09T21:45:43.775424","MEAN_MOTION":13.99100887,"ECCENTRICITY":0.00114132,"INCLINATION":44.9846,"RA_OF_ASC_NODE":103.7214,"ARG_OF_PERICENTER":272.0417,"MEAN_ANOMALY":87.9108,"EPHEMERIS_TYPE":0,"CLASSIFICATION_TYPE":"U","NORAD_CAT_ID":64061,"ELEMENT_SET_NO":999,"REV_AT_EPOCH":4130,"BSTAR":0.00015588372,"MEAN_MOTION_DOT":9.9e-7,"MEAN_MOTION_DDOT":0},{"OBJECT_NAME":"SL-16 DEB","OBJECT_ID":"1992-093EX","EPOCH":"2026-03-09T13:33:41.279904","MEAN_MOTION":14.0264605,"ECCENTRICITY":0.00712667,"INCLINATION":70.8545,"RA_OF_ASC_NODE":26.8744,"ARG_OF_PERICENTER":25.7775,"MEAN_ANOMALY":89.0325,"EPHEMERIS_TYPE":0,"CLASSIFICATION_TYPE":"U","NORAD_CAT_ID":22458,"ELEMENT_SET_NO":999,"REV_AT_EPOCH":69483,"BSTAR":0.00023597058,"MEAN_MOTION_DOT":3.25e-6,"MEAN_MOTION_DDOT":0}]
